satname,norad_id,inclination_deg,eccentricity,mean_motion_rev_per_day,perigee_km,apogee_km,l1,l2
STARLINK-1554,46055,53.1603,0.0001232,15.31719502,469.8380869115372,471.52563587898476,1 46055U 20055AE  26146.16927568  .00001739  00000+0  67753-4 0  9996,2 46055  53.1603 113.6685 0001232  96.7289 263.3853 15.31719502320941
STARLINK-1564,46058,53.1585,0.0001157,15.30191401,474.44780879852806,476.03368040862915,1 46058U 20055AH  26146.93005702  .00000542  00000+0  30440-4 0  9995,2 46058  53.1585 110.9485 0001157  92.7850 267.3283 15.30191401321041
STARLINK-1570,46059,53.1588,0.0003289,15.32212471,466.9606783047402,471.4648649845276,1 46059U 20055AJ  26146.91459812  .00101388  00000+0  31832-2 0  9993,2 46059  53.1588 110.0780 0003289 246.7533 113.3123 15.32212471321014
STARLINK-1572,46060,53.1595,0.0001275,15.30210255,474.310651523926,476.05824849367855,1 46060U 20055AK  26146.32322108  .00001912  00000+0  76655-4 0  9993,2 46060  53.1595 113.5147 0001275  76.7828 283.3315 15.30210255320926
STARLINK-1573,46061,53.1609,0.0001194,15.31698578,469.92647771757674,471.56199055628804,1 46061U 20055AL  26146.90100752  .00001013  00000+0  44415-4 0  9998,2 46061  53.1609 110.1128 0001194  80.4005 279.7131 15.31698578321053
STARLINK-1577,46063,53.1597,0.0002188,15.3170533,469.22557600890013,472.22263762924376,1 46063U 20055AN  26146.92896965  .00002460  00000+0  91016-4 0  9996,2 46063  53.1597 109.9789 0002188  89.7515 270.3737 15.31705330321056
STARLINK-1583,46064,53.1612,0.0001562,15.30207709,474.1215618336173,476.2625418294092,1 46064U 20055AP  26146.28735553  .00001946  00000+0  77814-4 0  9999,2 46064  53.1612 113.4303 0001562  95.5185 264.5994 15.30207709320943
STARLINK-1536,46070,53.1597,0.0001145,15.31722913,469.8875050209708,471.4558822118097,1 46070U 20055AV  26146.29179630  .00006393  00000+0  21745-3 0  9997,2 46070  53.1597 100.8324 0001145  88.0464 272.0668 15.31722913321122
STARLINK-1542,46073,53.16,0.0001028,15.31707856,470.01251485081684,471.4206391462485,1 46073U 20055AY  26146.90342729  .00001538  00000+0  61292-4 0  9997,2 46073  53.1600 100.9526 0001028  88.2026 271.9093 15.31707856321164
STARLINK-1549,46074,53.0504,0.0004099,15.28212154,478.3452275339969,483.9684766339342,1 46074U 20055AZ  26146.25193312  .00040809  00000+0  14689-2 0  9998,2 46074  53.0504 101.0353 0004099  65.7609 294.3818 15.28212154321099
STARLINK-1551,46075,53.1603,0.000143,15.30187634,474.2719576890913,476.23202694089287,1 46075U 20055BA  26146.85570002  .00004344  00000+0  15877-3 0  9995,2 46075  53.1603  97.9902 0001430  79.0957 281.0205 15.30187634321207
STARLINK-1552,46076,53.1614,0.0001056,15.31696803,470.0262829157891,471.4727677499386,1 46076U 20055BB  26146.85602616  .00000194  00000+0  18020-4 0  9996,2 46076  53.1614  97.7244 0001056  87.4602 272.6521 15.31696803321190
STARLINK-1559,46077,53.0246,0.0002839,15.36943876,453.2127643497897,457.09270626149555,1 46077U 20055BC  26146.96478499  .00046099  00000+0  12603-2 0  9992,2 46077  53.0246  67.3905 0002839  69.2931 290.8375 15.36943876321594
STARLINK-1566,46079,53.1598,0.0001379,15.31706743,469.77543740147667,471.6643521330525,1 46079U 20055BE  26146.86068489  .00007107  00000+0  24053-3 0  9997,2 46079  53.1598  97.5562 0001379  80.2847 279.8311 15.31706743321219
STARLINK-1568,46080,53.0604,0.0004081,15.52917718,405.4428195564051,410.98183787850394,1 46080U 20055BF  26146.84880339  .00048104  00000+0  76296-3 0  9991,2 46080  53.0604  18.1544 0004081  58.5070 301.6337 15.52917718322319
STARLINK-1578,46082,53.1595,0.0001394,15.31718716,469.72947869575455,471.638930047533,1 46082U 20055BH  26146.27779817  .00005289  00000+0  18199-3 0  9993,2 46082  53.1595 100.7858 0001394  84.5321 275.5840 15.31718716321118
STARLINK-1579,46083,53.1611,0.000106,15.31697626,470.02109029362146,471.47305371688617,1 46083U 20055BJ  26146.85135419 -.00000403  00000+0 -12267-5 0  9999,2 46083  53.1611  97.6528 0001060  87.5062 272.6061 15.31697626321200
STARLINK-1622,46128,53.0161,0.0007075,15.80118287,325.35974824582536,334.85191185034364,1 46128U 20057M   26147.00002315  .00155681  00000+0  80430-3 0  9999,2 46128  53.0161 195.7099 0007075  21.2279 151.3862 15.80118287  6015
STARLINK-1623,46129,53.0434,0.0004779,15.71804737,350.5219095456323,356.95623669632096,1 46129U 20057N   26146.48495041  .00091506  00000+0  68846-3 0  9995,2 46129  53.0434 235.6341 0004779 351.9023   8.1916 15.71804737319086
STARLINK-1624,46130,53.0127,0.0005715,16.43550406,152.6404686236865,160.10941577361973,1 46130U 20057P   26147.01126124  .11295235  12524-4  45513-3 0  9992,2 46130  53.0127 195.9911 0005715 310.4290  49.6259 16.43550406320921
STARLINK-1596,46141,53.0361,0.0006553,15.57096044,391.62738848090794,400.50565961952907,1 46141U 20057AA  26146.45458595  .00079225  00000+0  10692-2 0  9998,2 46141  53.0361 216.9305 0006553 348.9372  11.1493 15.57096044319347
STARLINK-1597,46142,53.0432,0.000235,15.71555099,352.86979144811903,356.0341082545483,1 46142U 20057AB  26146.77772724  .00107656  00000+0  81647-3 0  9996,2 46142  53.0432 273.9075 0002350  19.0127 341.0978 15.71555099318561
STARLINK-1606,46144,53.0361,0.0007554,15.84753157,311.962355244018,322.07739825341014,1 46144U 20057AD  26147.00002315  .00253465  00000+0  10406-2 0  9991,2 46144  53.0361 227.1011 0007554 333.2502  36.1661 15.84753157  6007
STARLINK-1608,46146,53.1586,0.0001941,15.3468271,460.53545148457397,463.19073952164945,1 46146U 20057AF  26146.80946420  .00048657  00000+0  14290-2 0  9994,2 46146  53.1586 305.5630 0001941 289.2342  70.8451 15.34682710318158
STARLINK-1667,46155,53.0136,0.0008548,15.84141097,313.01979714972913,324.46878540529633,1 46155U 20057AQ  26147.00002315  .00274684  00000+0  11575-2 0  9997,2 46155  53.0136 195.3333 0008548  19.7898 326.4621 15.84141097  6016
STARLINK-1545,46156,53.0413,0.0005779,15.78852813,329.81109087277036,337.5686203524865,1 46156U 20057AR  26147.00002315  .00143075  00000+0  78472-3 0  9997,2 46156  53.0413 231.0780 0005779 316.9927 258.2691 15.78852813  5956
STARLINK-1595,46159,53.0432,0.0002537,15.69655378,358.17362651853455,361.5924978980993,1 46159U 20057AU  26146.60291389  .00088446  00000+0  72863-3 0  9994,2 46159  53.0432 277.3447 0002537 356.3218   3.7779 15.69655378319767
STARLINK-1598,46160,53.0458,0.0002347,15.69605664,358.4438899525039,361.6067833533298,1 46160U 20057AV  26146.70349353  .00080815  00000+0  66818-3 0  9997,2 46160  53.0458 262.9891 0002347 155.9903 204.1223 15.69605664319969
